{
  "type": "FeatureCollection",
  "features": [
    {
      "type": "Feature",
      "properties": {
        "norad_id": 37417,
        "name": "FENGYUN 1C DEB",
        "group": "fengyun-1c-debris",
        "lat": -81.01932831087892,
        "lon": 66.4418445539842,
        "alt_km": 829.3295043738799,
        "timestamp": "2025-12-21T09:37:22.943931+00:00",
        "meta_object_name": "FENGYUN 1C DEB",
        "meta_object_id": "1999-025EGK",
        "meta_epoch": "2025-12-14T05:42:40.741056",
        "meta_mean_motion": 14.07392005,
        "meta_eccentricity": 0.00781873,
        "meta_inclination": 98.797,
        "meta_ra_of_asc_node": 340.9941,
        "meta_arg_of_pericenter": 256.4358,
        "meta_mean_anomaly": 102.8093,
        "meta_ephemeris_type": 0,
        "meta_classification_type": "U",
        "meta_norad_cat_id": 37417,
        "meta_element_set_no": 999,
        "meta_rev_at_epoch": 68371,
        "meta_bstar": 0.00034066216,
        "meta_mean_motion_dot": 5.45e-06,
        "meta_mean_motion_ddot": 0,
        "tle_line1": "1 37417U 99025EGK 25348.23797154  .00000545  00000+0  34066-3 0  9992",
        "tle_line2": "2 37417  98.7970 340.9941 0078187 256.4358 102.8093 14.07392005683717"
      },
      "geometry": {
        "type": "Point",
        "coordinates": [
          66.4418445539842,
          -81.01932831087892
        ]
      }
    },
    {
      "type": "Feature",
      "properties": {
        "norad_id": 37418,
        "name": "FENGYUN 1C DEB",
        "group": "fengyun-1c-debris",
        "lat": -33.05290593789098,
        "lon": -109.65911731399666,
        "alt_km": 898.8109567007268,
        "timestamp": "2025-12-21T09:37:22.943944+00:00",
        "meta_object_name": "FENGYUN 1C DEB",
        "meta_object_id": "1999-025EGL",
        "meta_epoch": "2025-12-19T23:37:42.566880",
        "meta_mean_motion": 11.95144251,
        "meta_eccentricity": 0.1076128,
        "meta_inclination": 98.6118,
        "meta_ra_of_asc_node": 243.7385,
        "meta_arg_of_pericenter": 305.6539,
        "meta_mean_anomaly": 44.8873,
        "meta_ephemeris_type": 0,
        "meta_classification_type": "U",
        "meta_norad_cat_id": 37418,
        "meta_element_set_no": 999,
        "meta_rev_at_epoch": 49571,
        "meta_bstar": -0.00092645,
        "meta_mean_motion_dot": -4.14e-06,
        "meta_mean_motion_ddot": 0,
        "tle_line1": "1 37418U 99025EGL 25353.98452045 -.00000414  00000+0 -92645-3 0  9992",
        "tle_line2": "2 37418  98.6118 243.7385 1076128 305.6539  44.8873 11.95144251495719"
      },
      "geometry": {
        "type": "Point",
        "coordinates": [
          -109.65911731399666,
          -33.05290593789098
        ]
      }
    },
    {
      "type": "Feature",
      "properties": {
        "norad_id": 37420,
        "name": "FENGYUN 1C DEB",
        "group": "fengyun-1c-debris",
        "lat": -81.01480802534927,
        "lon": 65.82695059941543,
        "alt_km": 853.2775703464731,
        "timestamp": "2025-12-21T09:37:22.943954+00:00",
        "meta_object_name": "FENGYUN 1C DEB",
        "meta_object_id": "1999-025EGN",
        "meta_epoch": "2025-12-20T18:36:12.337056",
        "meta_mean_motion": 13.99759458,
        "meta_eccentricity": 0.00709493,
        "meta_inclination": 98.8637,
        "meta_ra_of_asc_node": 344.5139,
        "meta_arg_of_pericenter": 253.6303,
        "meta_mean_anomaly": 105.7053,
        "meta_ephemeris_type": 0,
        "meta_classification_type": "U",
        "meta_norad_cat_id": 37420,
        "meta_element_set_no": 999,
        "meta_rev_at_epoch": 59877,
        "meta_bstar": 0.00033965148,
        "meta_mean_motion_dot": 4.65e-06,
        "meta_mean_motion_ddot": 0,
        "tle_line1": "1 37420U 99025EGN 25354.77514279  .00000465  00000+0  33965-3 0  9995",
        "tle_line2": "2 37420  98.8637 344.5139 0070949 253.6303 105.7053 13.99759458598776"
      },
      "geometry": {
        "type": "Point",
        "coordinates": [
          65.82695059941543,
          -81.01480802534927
        ]
      }
    },
    {
      "type": "Feature",
      "properties": {
        "norad_id": 37421,
        "name": "FENGYUN 1C DEB",
        "group": "fengyun-1c-debris",
        "lat": -28.2706516619653,
        "lon": 124.28237130220622,
        "alt_km": 1359.026814751891,
        "timestamp": "2025-12-21T09:37:22.943964+00:00",
        "meta_object_name": "FENGYUN 1C DEB",
        "meta_object_id": "1999-025EGP",
        "meta_epoch": "2025-12-17T07:53:38.656896",
        "meta_mean_motion": 13.40536382,
        "meta_eccentricity": 0.04092708,
        "meta_inclination": 98.888,
        "meta_ra_of_asc_node": 305.5227,
        "meta_arg_of_pericenter": 73.9716,
        "meta_mean_anomaly": 290.6084,
        "meta_ephemeris_type": 0,
        "meta_classification_type": "U",
        "meta_norad_cat_id": 37421,
        "meta_element_set_no": 999,
        "meta_rev_at_epoch": 61007,
        "meta_bstar": 0.00075435568,
        "meta_mean_motion_dot": 6.43e-06,
        "meta_mean_motion_ddot": 0,
        "tle_line1": "1 37421U 99025EGP 25351.32891964  .00000643  00000+0  75436-3 0  9990",
        "tle_line2": "2 37421  98.8880 305.5227 0409270  73.9716 290.6084 13.40536382610077"
      },
      "geometry": {
        "type": "Point",
        "coordinates": [
          124.28237130220622,
          -28.2706516619653
        ]
      }
    },
    {
      "type": "Feature",
      "properties": {
        "norad_id": 37423,
        "name": "FENGYUN 1C DEB",
        "group": "fengyun-1c-debris",
        "lat": -1.3393218403171459,
        "lon": -134.80202767912826,
        "alt_km": 845.4942066835392,
        "timestamp": "2025-12-21T09:37:22.943974+00:00",
        "meta_object_name": "FENGYUN 1C DEB",
        "meta_object_id": "1999-025EGR",
        "meta_epoch": "2025-12-19T20:56:31.693920",
        "meta_mean_motion": 14.07571536,
        "meta_eccentricity": 0.0049402,
        "meta_inclination": 98.7853,
        "meta_ra_of_asc_node": 43.9189,
        "meta_arg_of_pericenter": 140.2024,
        "meta_mean_anomaly": 220.2786,
        "meta_ephemeris_type": 0,
        "meta_classification_type": "U",
        "meta_norad_cat_id": 37423,
        "meta_element_set_no": 999,
        "meta_rev_at_epoch": 63710,
        "meta_bstar": 0.00067171,
        "meta_mean_motion_dot": 1.103e-05,
        "meta_mean_motion_ddot": 0,
        "tle_line1": "1 37423U 99025EGR 25353.87258905  .00001103  00000+0  67171-3 0  9995",
        "tle_line2": "2 37423  98.7853  43.9189 0049402 140.2024 220.2786 14.07571536637100"
      },
      "geometry": {
        "type": "Point",
        "coordinates": [
          -134.80202767912826,
          -1.3393218403171459
        ]
      }
    },
    {
      "type": "Feature",
      "properties": {
        "norad_id": 37424,
        "name": "FENGYUN 1C DEB",
        "group": "fengyun-1c-debris",
        "lat": 15.541331437530234,
        "lon": 120.25829529715506,
        "alt_km": 906.3444015755631,
        "timestamp": "2025-12-21T09:37:22.943984+00:00",
        "meta_object_name": "FENGYUN 1C DEB",
        "meta_object_id": "1999-025EGS",
        "meta_epoch": "2025-12-18T03:38:23.573472",
        "meta_mean_motion": 14.17877456,
        "meta_eccentricity": 0.0214773,
        "meta_inclination": 97.1982,
        "meta_ra_of_asc_node": 119.6335,
        "meta_arg_of_pericenter": 266.2363,
        "meta_mean_anomaly": 91.4237,
        "meta_ephemeris_type": 0,
        "meta_classification_type": "U",
        "meta_norad_cat_id": 37424,
        "meta_element_set_no": 999,
        "meta_rev_at_epoch": 68650,
        "meta_bstar": 0.00087369687,
        "meta_mean_motion_dot": 2.206e-05,
        "meta_mean_motion_ddot": 0,
        "tle_line1": "1 37424U 99025EGS 25352.15166173  .00002206  00000+0  87370-3 0  9999",
        "tle_line2": "2 37424  97.1982 119.6335 0214773 266.2363  91.4237 14.17877456686509"
      },
      "geometry": {
        "type": "Point",
        "coordinates": [
          120.25829529715506,
          15.541331437530234
        ]
      }
    },
    {
      "type": "Feature",
      "properties": {
        "norad_id": 37427,
        "name": "FENGYUN 1C DEB",
        "group": "fengyun-1c-debris",
        "lat": 35.7070799078253,
        "lon": 131.92106162512263,
        "alt_km": 646.9906147131915,
        "timestamp": "2025-12-21T09:37:22.943994+00:00",
        "meta_object_name": "FENGYUN 1C DEB",
        "meta_object_id": "1999-025EGV",
        "meta_epoch": "2025-12-18T02:54:56.658240",
        "meta_mean_motion": 14.9812711,
        "meta_eccentricity": 0.0187852,
        "meta_inclination": 98.6206,
        "meta_ra_of_asc_node": 134.5593,
        "meta_arg_of_pericenter": 280.0724,
        "meta_mean_anomaly": 77.9349,
        "meta_ephemeris_type": 0,
        "meta_classification_type": "U",
        "meta_norad_cat_id": 37427,
        "meta_element_set_no": 999,
        "meta_rev_at_epoch": 60403,
        "meta_bstar": 0.00035837255,
        "meta_mean_motion_dot": 6.036e-05,
        "meta_mean_motion_ddot": 0,
        "tle_line1": "1 37427U 99025EGV 25352.12148910  .00006036  00000+0  35837-3 0  9994",
        "tle_line2": "2 37427  98.6206 134.5593 0187852 280.0724  77.9349 14.98127110604036"
      },
      "geometry": {
        "type": "Point",
        "coordinates": [
          131.92106162512263,
          35.7070799078253
        ]
      }
    }
  ]
}